STARLINK-36795          
1 67809U 26032N   26067.97990565  .00157583  00000+0  10364-2 0  9998
2 67809  97.2839 254.4607 0001475  82.5856 277.5577 15.75225690  4678
STARLINK-36807          
1 67810U 26032P   26067.91668981  .00136235  00000+0  90188-3 0  9992
2 67810  97.2848 254.4329 0001409 108.9505 342.9659 15.75135205  4650
STARLINK-36733          
1 67811U 26032Q   26065.98599289  .00340272  00000+0  16957-2 0  9991
2 67811  97.2826 252.4272 0001019  92.9065 267.2320 15.80984946  4364
STARLINK-36377          
1 67812U 26032R   26067.91668981  .00151674  00000+0  10027-2 0  9991
2 67812  97.2851 254.4612 0001292  98.7823  61.1320 15.75122419  4658
STARLINK-36732          
1 67813U 26032S   26067.91668981  .00130122  00000+0  86251-3 0  9990
2 67813  97.2849 254.4485 0001376  95.7636  36.1500 15.75123508  4658
STARLINK-36767          
1 67814U 26032T   26067.97672957  .00136707  00000+0  90169-3 0  9993
2 67814  97.2837 254.4634 0001560 104.0948 256.0491 15.75218637  4679
STARLINK-36797          
1 67815U 26032U   26067.96790392  .00123222  00000+0  81390-3 0  9991
2 67815  97.2847 254.4765 0001070  54.9279 305.2086 15.75225303  4677
STARLINK-36343          
1 67816U 26032V   26067.91668981  .00125853  00000+0  83455-3 0  9991
2 67816  97.2851 254.4690 0001192  97.3326  84.5882 15.75126597  4596
STARLINK-36756          
1 67817U 26032W   26067.95908532  .00220864  00000+0  14403-2 0  9999
2 67817  97.2845 254.4876 0001689  94.1002 266.0457 15.75243061  4662
STARLINK-36346          
1 67818U 26032X   26067.91668981  .00182968  00000+0  12059-2 0  9994
2 67818  97.2856 254.4804 0001648  89.5013 116.4122 15.75105462  4659
STARLINK-36788          
1 67819U 26032Y   26067.97004574  .00268419  00000+0  17423-2 0  9999
2 67819  97.2843 254.4727 0001965  52.5663 307.5781 15.75218952  4678
STARLINK-36353          
1 67820U 26032Z   26067.96614054  .00363788  00000+0  23269-2 0  9990
2 67820  97.2840 254.4781 0000909  68.6896 291.4466 15.75294064  4679
STARLINK-36644          
1 67821U 26033A   26067.93672575  .00511974  00000+0  22829-2 0  9994
2 67821  42.9987 276.1401 0001306 341.5417  18.5407 15.82109717  4506
STARLINK-36643          
1 67822U 26033B   26067.93596541  .00296667  00000+0  13577-2 0  9992
2 67822  42.9981 276.1340 0001724 265.5486  94.5188 15.82110297  4503
STARLINK-36646          
1 67823U 26033C   26067.93520604  .00150661  00000+0  70301-3 0  9992
2 67823  42.9982 276.1278 0004373 244.2108 115.8313 15.82086441  4503
STARLINK-36647          
1 67824U 26033D   26067.93447692  .00549594  00000+0  24389-2 0  9999
2 67824  42.9982 276.1214 0001250 332.6620  27.4186 15.82116619  4503
