[{"OBJECT_NAME":"STARLINK-36795","OBJECT_ID":"2026-032N","EPOCH":"2026-03-08T23:31:03.848160","MEAN_MOTION":15.7522569,"ECCENTRICITY":0.00014759,"INCLINATION":97.2839,"RA_OF_ASC_NODE":254.4607,"ARG_OF_PERICENTER":82.5856,"MEAN_ANOMALY":277.5577,"EPHEMERIS_TYPE":0,"CLASSIFICATION_TYPE":"U","NORAD_CAT_ID":67809,"ELEMENT_SET_NO":999,"REV_AT_EPOCH":467,"BSTAR":0.0010363937,"MEAN_MOTION_DOT":0.00157583,"MEAN_MOTION_DDOT":0},{"OBJECT_NAME":"STARLINK-36807","OBJECT_ID":"2026-032P","EPOCH":"2026-03-08T22:00:01.999584","MEAN_MOTION":15.75135205,"ECCENTRICITY":0.00014097,"INCLINATION":97.2848,"RA_OF_ASC_NODE":254.4329,"ARG_OF_PERICENTER":108.9505,"MEAN_ANOMALY":342.9659,"EPHEMERIS_TYPE":0,"CLASSIFICATION_TYPE":"U","NORAD_CAT_ID":67810,"ELEMENT_SET_NO":999,"REV_AT_EPOCH":465,"BSTAR":0.00090188165,"MEAN_MOTION_DOT":0.00136235,"MEAN_MOTION_DDOT":0},{"OBJECT_NAME":"STARLINK-36733","OBJECT_ID":"2026-032Q","EPOCH":"2026-03-06T23:39:49.785696","MEAN_MOTION":15.80984946,"ECCENTRICITY":0.00010197,"INCLINATION":97.2826,"RA_OF_ASC_NODE":252.4272,"ARG_OF_PERICENTER":92.9065,"MEAN_ANOMALY":267.232,"EPHEMERIS_TYPE":0,"CLASSIFICATION_TYPE":"U","NORAD_CAT_ID":67811,"ELEMENT_SET_NO":999,"REV_AT_EPOCH":436,"BSTAR":0.001695664,"MEAN_MOTION_DOT":0.00340272,"MEAN_MOTION_DDOT":0},{"OBJECT_NAME":"STARLINK-36377","OBJECT_ID":"2026-032R","EPOCH":"2026-03-08T22:00:01.999584","MEAN_MOTION":15.75122419,"ECCENTRICITY":0.00012926,"INCLINATION":97.2851,"RA_OF_ASC_NODE":254.4612,"ARG_OF_PERICENTER":98.7823,"MEAN_ANOMALY":61.132,"EPHEMERIS_TYPE":0,"CLASSIFICATION_TYPE":"U","NORAD_CAT_ID":67812,"ELEMENT_SET_NO":999,"REV_AT_EPOCH":465,"BSTAR":0.0010027251,"MEAN_MOTION_DOT":0.00151674,"MEAN_MOTION_DDOT":0},{"OBJECT_NAME":"STARLINK-36732","OBJECT_ID":"2026-032S","EPOCH":"2026-03-08T22:00:01.999584","MEAN_MOTION":15.75123508,"ECCENTRICITY":0.00013766,"INCLINATION":97.2849,"RA_OF_ASC_NODE":254.4485,"ARG_OF_PERICENTER":95.7636,"MEAN_ANOMALY":36.15,"EPHEMERIS_TYPE":0,"CLASSIFICATION_TYPE":"U","NORAD_CAT_ID":67813,"ELEMENT_SET_NO":999,"REV_AT_EPOCH":465,"BSTAR":0.00086250907,"MEAN_MOTION_DOT":0.00130122,"MEAN_MOTION_DDOT":0},{"OBJECT_NAME":"STARLINK-36767","OBJECT_ID":"2026-032T","EPOCH":"2026-03-08T23:26:29.434848","MEAN_MOTION":15.75218637,"ECCENTRICITY":0.00015604,"INCLINATION":97.2837,"RA_OF_ASC_NODE":254.4634,"ARG_OF_PERICENTER":104.0948,"MEAN_ANOMALY":256.0491,"EPHEMERIS_TYPE":0,"CLASSIFICATION_TYPE":"U","NORAD_CAT_ID":67814,"ELEMENT_SET_NO":999,"REV_AT_EPOCH":467,"BSTAR":0.00090168927,"MEAN_MOTION_DOT":0.00136707,"MEAN_MOTION_DDOT":0},{"OBJECT_NAME":"STARLINK-36797","OBJECT_ID":"2026-032U","EPOCH":"2026-03-08T23:13:46.898688","MEAN_MOTION":15.75225303,"ECCENTRICITY":0.00010704,"INCLINATION":97.2847,"RA_OF_ASC_NODE":254.4765,"ARG_OF_PERICENTER":54.9279,"MEAN_ANOMALY":305.2086,"EPHEMERIS_TYPE":0,"CLASSIFICATION_TYPE":"U","NORAD_CAT_ID":67815,"ELEMENT_SET_NO":999,"REV_AT_EPOCH":467,"BSTAR":0.00081390363,"MEAN_MOTION_DOT":0.00123222,"MEAN_MOTION_DDOT":0},{"OBJECT_NAME":"STARLINK-36343","OBJECT_ID":"2026-032V","EPOCH":"2026-03-08T22:00:01.999584","MEAN_MOTION":15.75126597,"ECCENTRICITY":0.00011923,"INCLINATION":97.2851,"RA_OF_ASC_NODE":254.469,"ARG_OF_PERICENTER":97.3326,"MEAN_ANOMALY":84.5882,"EPHEMERIS_TYPE":0,"CLASSIFICATION_TYPE":"U","NORAD_CAT_ID":67816,"ELEMENT_SET_NO":999,"REV_AT_EPOCH":459,"BSTAR":0.00083455384,"MEAN_MOTION_DOT":0.00125853,"MEAN_MOTION_DDOT":0},{"OBJECT_NAME":"STARLINK-36756","OBJECT_ID":"2026-032W","EPOCH":"2026-03-08T23:01:04.971648","MEAN_MOTION":15.75243061,"ECCENTRICITY":0.00016898,"INCLINATION":97.2845,"RA_OF_ASC_NODE":254.4876,"ARG_OF_PERICENTER":94.1002,"MEAN_ANOMALY":266.0457,"EPHEMERIS_TYPE":0,"CLASSIFICATION_TYPE":"U","NORAD_CAT_ID":67817,"ELEMENT_SET_NO":999,"REV_AT_EPOCH":466,"BSTAR":0.0014403489,"MEAN_MOTION_DOT":0.00220864,"MEAN_MOTION_DDOT":0},{"OBJECT_NAME":"STARLINK-36346","OBJECT_ID":"2026-032X","EPOCH":"2026-03-08T22:00:01.999584","MEAN_MOTION":15.75105462,"ECCENTRICITY":0.00016489,"INCLINATION":97.2856,"RA_OF_ASC_NODE":254.4804,"ARG_OF_PERICENTER":89.5013,"MEAN_ANOMALY":116.4122,"EPHEMERIS_TYPE":0,"CLASSIFICATION_TYPE":"U","NORAD_CAT_ID":67818,"ELEMENT_SET_NO":999,"REV_AT_EPOCH":465,"BSTAR":0.0012058519,"MEAN_MOTION_DOT":0.00182968,"MEAN_MOTION_DDOT":0},{"OBJECT_NAME":"STARLINK-36788","OBJECT_ID":"2026-032Y","EPOCH":"2026-03-08T23:16:51.951936","MEAN_MOTION":15.75218952,"ECCENTRICITY":0.00019653,"INCLINATION":97.2843,"RA_OF_ASC_NODE":254.4727,"ARG_OF_PERICENTER":52.5663,"MEAN_ANOMALY":307.5781,"EPHEMERIS_TYPE":0,"CLASSIFICATION_TYPE":"U","NORAD_CAT_ID":67819,"ELEMENT_SET_NO":999,"REV_AT_EPOCH":467,"BSTAR":0.001742295,"MEAN_MOTION_DOT":0.00268419,"MEAN_MOTION_DDOT":0},{"OBJECT_NAME":"STARLINK-36353","OBJECT_ID":"2026-032Z","EPOCH":"2026-03-08T23:11:14.542656","MEAN_MOTION":15.75294064,"ECCENTRICITY":9.097e-5,"INCLINATION":97.284,"RA_OF_ASC_NODE":254.4781,"ARG_OF_PERICENTER":68.6896,"MEAN_ANOMALY":291.4466,"EPHEMERIS_TYPE":0,"CLASSIFICATION_TYPE":"U","NORAD_CAT_ID":67820,"ELEMENT_SET_NO":999,"REV_AT_EPOCH":467,"BSTAR":0.0023268814,"MEAN_MOTION_DOT":0.00363788,"MEAN_MOTION_DDOT":0},{"OBJECT_NAME":"STARLINK-36644","OBJECT_ID":"2026-033A","EPOCH":"2026-03-08T22:28:53.104800","MEAN_MOTION":15.82109717,"ECCENTRICITY":0.00013063,"INCLINATION":42.9987,"RA_OF_ASC_NODE":276.1401,"ARG_OF_PERICENTER":341.5417,"MEAN_ANOMALY":18.5407,"EPHEMERIS_TYPE":0,"CLASSIFICATION_TYPE":"U","NORAD_CAT_ID":67821,"ELEMENT_SET_NO":999,"REV_AT_EPOCH":450,"BSTAR":0.0022829374,"MEAN_MOTION_DOT":0.00511974,"MEAN_MOTION_DDOT":0},{"OBJECT_NAME":"STARLINK-36643","OBJECT_ID":"2026-033B","EPOCH":"2026-03-08T22:27:47.411424","MEAN_MOTION":15.82110297,"ECCENTRICITY":0.00017246,"INCLINATION":42.9981,"RA_OF_ASC_NODE":276.134,"ARG_OF_PERICENTER":265.5486,"MEAN_ANOMALY":94.5188,"EPHEMERIS_TYPE":0,"CLASSIFICATION_TYPE":"U","NORAD_CAT_ID":67822,"ELEMENT_SET_NO":999,"REV_AT_EPOCH":450,"BSTAR":0.0013576869,"MEAN_MOTION_DOT":0.00296667,"MEAN_MOTION_DDOT":0},{"OBJECT_NAME":"STARLINK-36646","OBJECT_ID":"2026-033C","EPOCH":"2026-03-08T22:26:41.801856","MEAN_MOTION":15.82086441,"ECCENTRICITY":0.00043739,"INCLINATION":42.9982,"RA_OF_ASC_NODE":276.1278,"ARG_OF_PERICENTER":244.2108,"MEAN_ANOMALY":115.8313,"EPHEMERIS_TYPE":0,"CLASSIFICATION_TYPE":"U","NORAD_CAT_ID":67823,"ELEMENT_SET_NO":999,"REV_AT_EPOCH":450,"BSTAR":0.00070300685,"MEAN_MOTION_DOT":0.00150661,"MEAN_MOTION_DDOT":0},{"OBJECT_NAME":"STARLINK-36647","OBJECT_ID":"2026-033D","EPOCH":"2026-03-08T22:25:38.805888","MEAN_MOTION":15.82116619,"ECCENTRICITY":0.00012507,"INCLINATION":42.9982,"RA_OF_ASC_NODE":276.1214,"ARG_OF_PERICENTER":332.662,"MEAN_ANOMALY":27.4186,"EPHEMERIS_TYPE":0,"CLASSIFICATION_TYPE":"U","NORAD_CAT_ID":67824,"ELEMENT_SET_NO":999,"REV_AT_EPOCH":450,"BSTAR":0.0024388843,"MEAN_MOTION_DOT":0.00549594,"MEAN_MOTION_DDOT":0}]
